{
  "norad_id": 67189,
  "name": "STARLINK-35889",
  "history": [
    {
      "epoch": "2026-03-28T16:03:11.473920",
      "apogee_km": 483.8948434700378,
      "perigee_km": 482.0209412330387,
      "latitude_deg": 1.2150996883214393,
      "longitude_deg": -116.8872511999216,
      "semi_major_axis_km": 6861.094892351538,
      "eccentricity": 0.00013656,
      "inclination_deg": 42.9996,
      "raan_deg": 203.8825,
      "arg_perigee_deg": 273.2854,
      "mean_anomaly_deg": 86.7842,
      "mean_motion_rev_day": 15.27610459
    }
  ]
}